ONEWEB-0233             
1 48795U 21045AE  26118.12522610 -.00000055  00000+0 -18105-3 0  9991
2 48795  87.8952 269.2193 0001823  87.1318 273.0021 13.15549813237713
ONEWEB-0190             
1 48796U 21045AF  26118.11268863  .00000099  00000+0  22882-3 0  9991
2 48796  87.8952 269.1832 0002204  80.0682 280.0697 13.15548321237780
ONEWEB-0236             
1 48797U 21045AG  26118.13011944 -.00000106  00000+0 -31530-3 0  9991
2 48797  87.8951 269.1902 0001697 100.1330 259.9992 13.15548413237670
ONEWEB-0248             
1 48798U 21045AH  26117.91462525 -.00000261  00000+0 -72834-3 0  9996
2 48798  87.8960 269.2118 0001775  81.1759 278.9573 13.15551168237803
ONEWEB-0225             
1 48799U 21045AJ  26118.31708063  .00000107  00000+0  25128-3 0  9993
2 48799  87.8950 269.1431 0002103  82.4509 277.6861 13.15549222237863
ONEWEB-0215             
1 48800U 21045AK  26118.13487500 -.00000102  00000+0 -30571-3 0  9991
2 48800  87.8963 269.1574 0002071  77.1218 283.0143 13.15548786237712
ONEWEB-0216             
1 48801U 21045AL  26118.14438266 -.00000126  00000+0 -36917-3 0  9994
2 48801  87.8958 269.1721 0001897  98.6079 261.5267 13.15548357237722
ONEWEB-0239             
1 48802U 21045AM  26118.14912581 -.00000065  00000+0 -20569-3 0  9990
2 48802  87.8948 269.1821 0001886  71.1852 288.9483 13.15548802237768
ONEWEB-0249             
1 48967U 21060A   26118.27488304  .00000034  00000+0  54133-4 0  9993
2 48967  87.9085 238.6900 0001821  98.8833 261.2504 13.16595510233040
ONEWEB-0250             
1 48968U 21060B   26118.27233970  .00000069  00000+0  12840-3 0  9997
2 48968  87.9085 236.6090 0000925  95.6384 264.4857 13.25830923233607
ONEWEB-0252             
1 48970U 21060D   26118.30576800  .00000070  00000+0  15030-3 0  9992
2 48970  87.9082 238.6761 0002137 102.2443 257.8928 13.16594156233095
ONEWEB-0253             
1 48971U 21060E   26118.29467263  .00000025  00000+0  31056-4 0  9990
2 48971  87.9081 238.6840 0001858  98.9581 261.1761 13.16594579233021
ONEWEB-0254             
1 48972U 21060F   26118.30418618  .00000075  00000+0  16365-3 0  9993
2 48972  87.9084 238.6785 0001789  91.4374 268.6962 13.16594436233021
ONEWEB-0255             
1 48973U 21060G   26118.26617167  .00000044  00000+0  81243-4 0  9993
2 48973  87.9085 238.6938 0001867  95.3877 264.7467 13.16596253233094
ONEWEB-0256             
1 48974U 21060H   26118.29230906  .00000023  00000+0  26414-4 0  9995
2 48974  87.9074 238.6957 0001964 104.2469 255.8880 13.16593009233062
ONEWEB-0257             
1 48975U 21060J   26118.32476633  .00000162  00000+0  39105-3 0  9993
2 48975  87.9083 238.6736 0001969  97.5754 262.5601 13.16595438233024
