[{"OBJECT_NAME":"ONEWEB-0233","OBJECT_ID":"2021-045AE","EPOCH":"2026-04-28T03:00:19.535040","MEAN_MOTION":13.15549813,"ECCENTRICITY":0.0001823,"INCLINATION":87.8952,"RA_OF_ASC_NODE":269.2193,"ARG_OF_PERICENTER":87.1318,"MEAN_ANOMALY":273.0021,"EPHEMERIS_TYPE":0,"CLASSIFICATION_TYPE":"U","NORAD_CAT_ID":48795,"ELEMENT_SET_NO":999,"REV_AT_EPOCH":23771,"BSTAR":-0.00018104999999999998,"MEAN_MOTION_DOT":-5.5e-07,"MEAN_MOTION_DDOT":0.0},{"OBJECT_NAME":"ONEWEB-0190","OBJECT_ID":"2021-045AF","EPOCH":"2026-04-28T02:42:16.297632","MEAN_MOTION":13.15548321,"ECCENTRICITY":0.0002204,"INCLINATION":87.8952,"RA_OF_ASC_NODE":269.1832,"ARG_OF_PERICENTER":80.0682,"MEAN_ANOMALY":280.0697,"EPHEMERIS_TYPE":0,"CLASSIFICATION_TYPE":"U","NORAD_CAT_ID":48796,"ELEMENT_SET_NO":999,"REV_AT_EPOCH":23778,"BSTAR":0.00022882,"MEAN_MOTION_DOT":9.9e-07,"MEAN_MOTION_DDOT":0.0},{"OBJECT_NAME":"ONEWEB-0236","OBJECT_ID":"2021-045AG","EPOCH":"2026-04-28T03:07:22.319616","MEAN_MOTION":13.15548413,"ECCENTRICITY":0.0001697,"INCLINATION":87.8951,"RA_OF_ASC_NODE":269.1902,"ARG_OF_PERICENTER":100.133,"MEAN_ANOMALY":259.9992,"EPHEMERIS_TYPE":0,"CLASSIFICATION_TYPE":"U","NORAD_CAT_ID":48797,"ELEMENT_SET_NO":999,"REV_AT_EPOCH":23767,"BSTAR":-0.0003153,"MEAN_MOTION_DOT":-1.06e-06,"MEAN_MOTION_DDOT":0.0},{"OBJECT_NAME":"ONEWEB-0248","OBJECT_ID":"2021-045AH","EPOCH":"2026-04-27T21:57:03.621600","MEAN_MOTION":13.15551168,"ECCENTRICITY":0.0001775,"INCLINATION":87.896,"RA_OF_ASC_NODE":269.2118,"ARG_OF_PERICENTER":81.1759,"MEAN_ANOMALY":278.9573,"EPHEMERIS_TYPE":0,"CLASSIFICATION_TYPE":"U","NORAD_CAT_ID":48798,"ELEMENT_SET_NO":999,"REV_AT_EPOCH":23780,"BSTAR":-0.00072834,"MEAN_MOTION_DOT":-2.61e-06,"MEAN_MOTION_DDOT":0.0},{"OBJECT_NAME":"ONEWEB-0225","OBJECT_ID":"2021-045AJ","EPOCH":"2026-04-28T07:36:35.766432","MEAN_MOTION":13.15549222,"ECCENTRICITY":0.0002103,"INCLINATION":87.895,"RA_OF_ASC_NODE":269.1431,"ARG_OF_PERICENTER":82.4509,"MEAN_ANOMALY":277.6861,"EPHEMERIS_TYPE":0,"CLASSIFICATION_TYPE":"U","NORAD_CAT_ID":48799,"ELEMENT_SET_NO":999,"REV_AT_EPOCH":23786,"BSTAR":0.00025128,"MEAN_MOTION_DOT":1.07e-06,"MEAN_MOTION_DDOT":0.0},{"OBJECT_NAME":"ONEWEB-0215","OBJECT_ID":"2021-045AK","EPOCH":"2026-04-28T03:14:13.200000","MEAN_MOTION":13.15548786,"ECCENTRICITY":0.0002071,"INCLINATION":87.8963,"RA_OF_ASC_NODE":269.1574,"ARG_OF_PERICENTER":77.1218,"MEAN_ANOMALY":283.0143,"EPHEMERIS_TYPE":0,"CLASSIFICATION_TYPE":"U","NORAD_CAT_ID":48800,"ELEMENT_SET_NO":999,"REV_AT_EPOCH":23771,"BSTAR":-0.00030571,"MEAN_MOTION_DOT":-1.02e-06,"MEAN_MOTION_DDOT":0.0},{"OBJECT_NAME":"ONEWEB-0216","OBJECT_ID":"2021-045AL","EPOCH":"2026-04-28T03:27:54.661824","MEAN_MOTION":13.15548357,"ECCENTRICITY":0.0001897,"INCLINATION":87.8958,"RA_OF_ASC_NODE":269.1721,"ARG_OF_PERICENTER":98.6079,"MEAN_ANOMALY":261.5267,"EPHEMERIS_TYPE":0,"CLASSIFICATION_TYPE":"U","NORAD_CAT_ID":48801,"ELEMENT_SET_NO":999,"REV_AT_EPOCH":23772,"BSTAR":-0.00036917,"MEAN_MOTION_DOT":-1.26e-06,"MEAN_MOTION_DDOT":0.0},{"OBJECT_NAME":"ONEWEB-0239","OBJECT_ID":"2021-045AM","EPOCH":"2026-04-28T03:34:44.469984","MEAN_MOTION":13.15548802,"ECCENTRICITY":0.0001886,"INCLINATION":87.8948,"RA_OF_ASC_NODE":269.1821,"ARG_OF_PERICENTER":71.1852,"MEAN_ANOMALY":288.9483,"EPHEMERIS_TYPE":0,"CLASSIFICATION_TYPE":"U","NORAD_CAT_ID":48802,"ELEMENT_SET_NO":999,"REV_AT_EPOCH":23776,"BSTAR":-0.00020569000000000002,"MEAN_MOTION_DOT":-6.5e-07,"MEAN_MOTION_DDOT":0.0},{"OBJECT_NAME":"ONEWEB-0249","OBJECT_ID":"2021-060A","EPOCH":"2026-04-28T06:35:49.894656","MEAN_MOTION":13.1659551,"ECCENTRICITY":0.0001821,"INCLINATION":87.9085,"RA_OF_ASC_NODE":238.69,"ARG_OF_PERICENTER":98.8833,"MEAN_ANOMALY":261.2504,"EPHEMERIS_TYPE":0,"CLASSIFICATION_TYPE":"U","NORAD_CAT_ID":48967,"ELEMENT_SET_NO":999,"REV_AT_EPOCH":23304,"BSTAR":5.4133e-05,"MEAN_MOTION_DOT":3.4e-07,"MEAN_MOTION_DDOT":0.0},{"OBJECT_NAME":"ONEWEB-0250","OBJECT_ID":"2021-060B","EPOCH":"2026-04-28T06:32:10.150080","MEAN_MOTION":13.25830923,"ECCENTRICITY":9.25e-05,"INCLINATION":87.9085,"RA_OF_ASC_NODE":236.609,"ARG_OF_PERICENTER":95.6384,"MEAN_ANOMALY":264.4857,"EPHEMERIS_TYPE":0,"CLASSIFICATION_TYPE":"U","NORAD_CAT_ID":48968,"ELEMENT_SET_NO":999,"REV_AT_EPOCH":23360,"BSTAR":0.00012839999999999998,"MEAN_MOTION_DOT":6.9e-07,"MEAN_MOTION_DDOT":0.0},{"OBJECT_NAME":"ONEWEB-0252","OBJECT_ID":"2021-060D","EPOCH":"2026-04-28T07:20:18.355200","MEAN_MOTION":13.16594156,"ECCENTRICITY":0.0002137,"INCLINATION":87.9082,"RA_OF_ASC_NODE":238.6761,"ARG_OF_PERICENTER":102.2443,"MEAN_ANOMALY":257.8928,"EPHEMERIS_TYPE":0,"CLASSIFICATION_TYPE":"U","NORAD_CAT_ID":48970,"ELEMENT_SET_NO":999,"REV_AT_EPOCH":23309,"BSTAR":0.0001503,"MEAN_MOTION_DOT":7e-07,"MEAN_MOTION_DDOT":0.0},{"OBJECT_NAME":"ONEWEB-0253","OBJECT_ID":"2021-060E","EPOCH":"2026-04-28T07:04:19.715232","MEAN_MOTION":13.16594579,"ECCENTRICITY":0.0001858,"INCLINATION":87.9081,"RA_OF_ASC_NODE":238.684,"ARG_OF_PERICENTER":98.9581,"MEAN_ANOMALY":261.1761,"EPHEMERIS_TYPE":0,"CLASSIFICATION_TYPE":"U","NORAD_CAT_ID":48971,"ELEMENT_SET_NO":999,"REV_AT_EPOCH":23302,"BSTAR":3.1056e-05,"MEAN_MOTION_DOT":2.5e-07,"MEAN_MOTION_DDOT":0.0},{"OBJECT_NAME":"ONEWEB-0254","OBJECT_ID":"2021-060F","EPOCH":"2026-04-28T07:18:01.685952","MEAN_MOTION":13.16594436,"ECCENTRICITY":0.0001789,"INCLINATION":87.9084,"RA_OF_ASC_NODE":238.6785,"ARG_OF_PERICENTER":91.4374,"MEAN_ANOMALY":268.6962,"EPHEMERIS_TYPE":0,"CLASSIFICATION_TYPE":"U","NORAD_CAT_ID":48972,"ELEMENT_SET_NO":999,"REV_AT_EPOCH":23302,"BSTAR":0.00016365,"MEAN_MOTION_DOT":7.5e-07,"MEAN_MOTION_DDOT":0.0},{"OBJECT_NAME":"ONEWEB-0255","OBJECT_ID":"2021-060G","EPOCH":"2026-04-28T06:23:17.232288","MEAN_MOTION":13.16596253,"ECCENTRICITY":0.0001867,"INCLINATION":87.9085,"RA_OF_ASC_NODE":238.6938,"ARG_OF_PERICENTER":95.3877,"MEAN_ANOMALY":264.7467,"EPHEMERIS_TYPE":0,"CLASSIFICATION_TYPE":"U","NORAD_CAT_ID":48973,"ELEMENT_SET_NO":999,"REV_AT_EPOCH":23309,"BSTAR":8.124300000000001e-05,"MEAN_MOTION_DOT":4.4e-07,"MEAN_MOTION_DDOT":0.0},{"OBJECT_NAME":"ONEWEB-0256","OBJECT_ID":"2021-060H","EPOCH":"2026-04-28T07:00:55.502784","MEAN_MOTION":13.16593009,"ECCENTRICITY":0.0001964,"INCLINATION":87.9074,"RA_OF_ASC_NODE":238.6957,"ARG_OF_PERICENTER":104.2469,"MEAN_ANOMALY":255.888,"EPHEMERIS_TYPE":0,"CLASSIFICATION_TYPE":"U","NORAD_CAT_ID":48974,"ELEMENT_SET_NO":999,"REV_AT_EPOCH":23306,"BSTAR":2.6413999999999998e-05,"MEAN_MOTION_DOT":2.3e-07,"MEAN_MOTION_DDOT":0.0},{"OBJECT_NAME":"ONEWEB-0257","OBJECT_ID":"2021-060J","EPOCH":"2026-04-28T07:47:39.810912","MEAN_MOTION":13.16595438,"ECCENTRICITY":0.0001969,"INCLINATION":87.9083,"RA_OF_ASC_NODE":238.6736,"ARG_OF_PERICENTER":97.5754,"MEAN_ANOMALY":262.5601,"EPHEMERIS_TYPE":0,"CLASSIFICATION_TYPE":"U","NORAD_CAT_ID":48975,"ELEMENT_SET_NO":999,"REV_AT_EPOCH":23302,"BSTAR":0.00039105,"MEAN_MOTION_DOT":1.62e-06,"MEAN_MOTION_DDOT":0.0}]